NORAD_CAT_ID,OBJECT_NAME,OBJECT_TYPE,EPOCH,MEAN_MOTION,ECCENTRICITY,INCLINATION,RA_OF_ASC_NODE,ARG_OF_PERICENTER,MEAN_ANOMALY,BSTAR,MEAN_MOTION_DOT,MEAN_MOTION_DDOT,TLE_LINE0,TLE_LINE1,TLE_LINE2,SEMIMAJOR_AXIS,PERIOD,APOGEE,PERIGEE,DECAYED
55961.0,STARLINK-5933,PAYLOAD,2023-04-04 22:00:00,15.69896938,0.0003676,69.9959,130.0243,271.1797,296.4564,0.00062205,0.00075176,0.0,0 STARLINK-5933,1 55961U 23037AZ  23094.91667824  .00075176  00000-0  62205-3 0  9996,2 55961  69.9959 130.0243 0003676 271.1797 296.4564 15.69896938  3377,6737.329,91.726,361.671,356.717,0.0
55961.0,STARLINK-5933,PAYLOAD,2023-04-05 06:00:00,15.69966929,0.0003524,69.9968,129.087,272.9911,17.9724,-0.00081205,-0.00096913,0.0,0 STARLINK-5933,1 55961U 23037AZ  23095.25001157 -.00096913  00000-0 -81205-3 0  9990,2 55961  69.9968 129.0870 0003524 272.9911  17.9724 15.69966929  3439,6737.129,91.722,361.368,356.619,0.0
55961.0,STARLINK-5933,PAYLOAD,2023-04-05 14:00:01,15.69943293,0.0003438,69.9975,128.1495,277.3539,96.9573,-0.00020679,-0.00025024,0.0,0 STARLINK-5933,1 55961U 23037AZ  23095.58334491 -.00025024  00000-0 -20679-3 0  9999,2 55961  69.9975 128.1495 0003438 277.3539  96.9573 15.69943293  1301,6737.196,91.723,361.377,356.745,0.0
55961.0,STARLINK-5933,PAYLOAD,2023-04-05 16:00:00,15.69982056,0.000337,69.9979,127.9151,275.2638,209.8744,-0.0010318,-0.00122778,0.0,0 STARLINK-5933,1 55961U 23037AZ  23095.66667824 -.00122778  00000-0 -10318-2 0  9999,2 55961  69.9979 127.9151 0003370 275.2638 209.8744 15.69982056  3490,6737.085,91.721,361.221,356.68,0.0
55961.0,STARLINK-5933,PAYLOAD,2023-04-05 22:00:00,15.69850128,0.0003439,69.9974,127.2122,268.1824,189.4928,0.0011206,0.00136324,0.0,0 STARLINK-5933,1 55961U 23037AZ  23095.91667824  .00136324  00000-0  11206-2 0  9994,2 55961  69.9974 127.2122 0003439 268.1824 189.4928 15.69850128  1309,6737.463,91.729,361.645,357.011,0.0
55961.0,STARLINK-5933,PAYLOAD,2023-04-06 10:00:00,15.69888108,0.0003422,69.999,125.8063,275.2751,127.3832,0.00058804,0.00070989,0.0,0 STARLINK-5933,1 55961U 23037AZ  23096.41667824  .00070989  00000-0  58804-3 0  9990,2 55961  69.9990 125.8063 0003422 275.2751 127.3832 15.69888108  3615,6737.354,91.726,361.525,356.914,0.0
55961.0,STARLINK-5933,PAYLOAD,2023-04-06 14:00:01,15.69940878,0.0003448,69.9992,125.3374,274.6248,349.7562,-0.000186,-0.00022534,0.0,0 STARLINK-5933,1 55961U 23037AZ  23096.58335648 -.00022534  00000-0 -18600-3 0  9999,2 55961  69.9992 125.3374 0003448 274.6248 349.7562 15.69940878  1306,6737.203,91.723,361.391,356.745,0.0
55961.0,STARLINK-5933,PAYLOAD,2023-04-06 22:00:00,15.69881445,0.0003358,69.9997,124.4004,267.9808,79.6938,0.00067652,0.00081785,0.0,0 STARLINK-5933,1 55961U 23037AZ  23096.91667824  .00081785  00000-0  67652-3 0  9992,2 55961  69.9997 124.4004 0003358 267.9808  79.6938 15.69881445  3692,6737.373,91.727,361.501,356.976,0.0
55961.0,STARLINK-5933,PAYLOAD,2023-04-07 08:00:01,15.69910273,0.0003337,70.0001,123.2291,274.4484,267.3958,2.1886e-05,2.418e-05,0.0,0 STARLINK-5933,1 55961U 23037AZ  23097.33334491  .00002418  00000-0  21886-4 0  9996,2 55961  70.0001 123.2291 0003337 274.4484 267.3958 15.69910273  3753,6737.291,91.725,361.404,356.907,0.0
55961.0,STARLINK-5933,PAYLOAD,2023-04-07 14:00:01,15.69967415,0.0003316,69.9998,122.5261,274.2588,240.0535,-0.00055191,-0.00066173,0.0,0 STARLINK-5933,1 55961U 23037AZ  23097.58334491 -.00066173  00000-0 -55191-3 0  9998,2 55961  69.9998 122.5261 0003316 274.2588 240.0535 15.69967415  1302,6737.127,91.722,361.226,356.758,0.0
55961.0,STARLINK-5933,PAYLOAD,2023-04-08 10:45:13,15.69938347,0.0003262,69.9994,120.0948,270.7199,89.3623,8.1236e-05,9.572e-05,0.0,0 STARLINK-5933,1 55961U 23037AZ  23098.44807812  .00009572  00000-0  81236-4 0  9994,2 55961  69.9994 120.0948 0003262 270.7199  89.3623 15.69938347  3937,6737.21,91.723,361.273,356.878,0.0
55961.0,STARLINK-5933,PAYLOAD,2023-04-09 03:34:30,15.69930526,0.000284,70.0004,118.1264,261.7075,98.3798,2.4062e-05,2.682e-05,0.0,0 STARLINK-5933,1 55961U 23037AZ  23099.14896212  .00002682  00000-0  24062-4 0  9993,2 55961  70.0004 118.1264 0002840 261.7075  98.3798 15.69930526  4042,6737.233,91.724,361.011,357.184,0.0
55961.0,STARLINK-5933,PAYLOAD,2023-04-09 11:13:16,15.6992157,0.0003083,70.0017,117.2315,260.2601,99.8246,-5.1228e-06,-8.28e-06,0.0,0 STARLINK-5933,1 55961U 23037AZ  23099.46754756 -.00000828  00000-0 -51228-5 0  9991,2 55961  70.0017 117.2315 0003083 260.2601  99.8246 15.69921570  4090,6737.258,91.724,361.2,357.046,0.0
55961.0,STARLINK-5933,PAYLOAD,2023-04-09 18:52:01,15.69926603,0.0003346,70.0006,116.3337,265.8998,94.1815,1.8695e-05,2.036e-05,0.0,0 STARLINK-5933,1 55961U 23037AZ  23099.78613044  .00002036  00000-0  18695-4 0  9991,2 55961  70.0006 116.3337 0003346 265.8998  94.1815 15.69926603  3804,6737.244,91.724,361.363,356.855,0.0
55961.0,STARLINK-5933,PAYLOAD,2023-04-10 13:13:03,15.69931184,0.0003319,70.0005,114.184,264.6008,95.4809,3.5344e-05,4.04e-05,0.0,0 STARLINK-5933,1 55961U 23037AZ  23100.55072964  .00004040  00000-0  35344-4 0  9996,2 55961  70.0005 114.1840 0003319 264.6008  95.4809 15.69931184  4265,6737.231,91.724,361.332,356.86,0.0
55961.0,STARLINK-5933,PAYLOAD,2023-04-10 17:48:18,15.69925678,0.0003285,70.0005,113.6464,265.2767,94.8053,1.5947e-05,1.705e-05,0.0,0 STARLINK-5933,1 55961U 23037AZ  23100.74188114  .00001705  00000-0  15947-4 0  9994,2 55961  70.0005 113.6464 0003285 265.2767  94.8053 15.69925678  3952,6737.247,91.724,361.325,356.898,0.0
55961.0,STARLINK-5933,PAYLOAD,2023-04-11 04:30:34,15.69920998,0.0003488,70.001,112.3926,263.7416,96.3382,7.6569e-06,7.08e-06,0.0,0 STARLINK-5933,1 55961U 23037AZ  23101.18789970  .00000708  00000-0  76569-5 0  9990,2 55961  70.0010 112.3926 0003488 263.7416  96.3382 15.69920998  4364,6737.26,91.724,361.475,356.775,0.0
55961.0,STARLINK-5933,PAYLOAD,2023-04-11 12:09:20,15.69920152,0.0003317,70.0005,111.4959,263.5379,96.5439,5.9007e-06,4.97e-06,0.0,0 STARLINK-5933,1 55961U 23037AZ  23101.50648530  .00000497  00000-0  59007-5 0  9995,2 55961  70.0005 111.4959 0003317 263.5379  96.5439 15.69920152  4076,6737.262,91.724,361.362,356.893,0.0
55961.0,STARLINK-5933,PAYLOAD,2023-04-12 09:33:51,15.69929271,0.0003309,69.9997,108.9887,265.9162,94.1655,8.6394e-06,8.26e-06,0.0,0 STARLINK-5933,1 55961U 23037AZ  23102.39851470  .00000826  00000-0  86394-5 0  9997,2 55961  69.9997 108.9887 0003309 265.9162  94.1655 15.69929271  4559,6737.236,91.724,361.331,356.872,0.0
55961.0,STARLINK-5933,PAYLOAD,2023-04-13 10:01:54,15.69915625,0.0003199,69.9998,106.1218,268.0654,92.0175,-1.4858e-06,-3.91e-06,0.0,0 STARLINK-5933,1 55961U 23037AZ  23103.41798913 -.00000391  00000-0 -14858-5 0  9998,2 55961  69.9998 106.1218 0003199 268.0654  92.0175 15.69915625  4377,6737.275,91.725,361.296,356.985,0.0
55961.0,STARLINK-5933,PAYLOAD,2023-04-14 10:29:57,15.69898045,0.0003042,70.0,103.2575,271.2745,88.8102,-4.2499e-05,-5.314e-05,0.0,0 STARLINK-5933,1 55961U 23037AZ  23104.43746618 -.00005314  00000-0 -42499-4 0  9997,2 55961  70.0000 103.2575 0003042 271.2745  88.8102 15.69898045  4539,6737.326,91.726,361.24,357.141,0.0
55961.0,STARLINK-5933,PAYLOAD,2023-04-14 22:43:57,15.69920665,0.000376,70.0007,101.825,275.1473,84.9293,-8.8973e-06,-1.283e-05,0.0,0 STARLINK-5933,1 55961U 23037AZ  23104.94719052 -.00001283  00000-0 -88973-5 0  9994,2 55961  70.0007 101.8250 0003760 275.1473  84.9293 15.69920665  4956,6737.261,91.724,361.659,356.593,0.0
55961.0,STARLINK-5933,PAYLOAD,2023-04-15 03:19:11,15.69937519,0.0002735,70.0017,101.2869,242.8532,117.2385,3.8357e-05,4.404e-05,0.0,0 STARLINK-5933,1 55961U 23037AZ  23105.13833185  .00004404  00000-0  38357-4 0  9996,2 55961  70.0017 101.2869 0002735 242.8532 117.2385 15.69937519  4986,6737.213,91.723,360.92,357.235,0.0
55961.0,STARLINK-5933,PAYLOAD,2023-04-15 09:26:13,15.69913706,0.0002796,70.0002,100.5693,272.9732,87.1143,-8.9629e-06,-1.289e-05,0.0,0 STARLINK-5933,1 55961U 23037AZ  23105.39320986 -.00001289  00000-0 -89629-5 0  9993,2 55961  70.0002 100.5693 0002796 272.9732  87.1143 15.69913706  4686,6737.281,91.725,361.03,357.262,0.0
55961.0,STARLINK-5933,PAYLOAD,2023-04-15 17:04:58,15.69924861,0.000334,70.0014,99.6756,275.7051,84.3763,1.9923e-05,2.184e-05,0.0,0 STARLINK-5933,1 55961U 23037AZ  23105.71178960  .00002184  00000-0  19923-4 0  9994,2 55961  70.0014  99.6756 0003340 275.7051  84.3763 15.69924861  5073,6737.249,91.724,361.364,356.864,0.0
55961.0,STARLINK-5933,PAYLOAD,2023-04-16 09:54:14,15.69934547,0.0003402,70.0013,97.705,275.5229,84.5579,4.3199e-05,4.987e-05,0.0,0 STARLINK-5933,1 55961U 23037AZ  23106.41267029  .00004987  00000-0  43199-4 0  9992,2 55961  70.0013  97.7050 0003402 275.5229  84.5579 15.69934547  4845,6737.221,91.724,361.378,356.794,0.0
55961.0,STARLINK-5933,PAYLOAD,2023-04-17 02:43:31,15.69925786,0.0003243,70.0008,95.7334,269.2025,90.8799,1.6041e-05,1.717e-05,0.0,0 STARLINK-5933,1 55961U 23037AZ  23107.11355659  .00001717  00000-0  16041-4 0  9991,2 55961  70.0008  95.7334 0003243 269.2025  90.8799 15.69925786  5298,6737.246,91.724,361.296,356.926,0.0
55961.0,STARLINK-5933,PAYLOAD,2023-04-17 08:50:31,15.69929107,0.0003246,70.0004,95.0164,269.5223,90.5601,3.1054e-05,3.524e-05,0.0,0 STARLINK-5933,1 55961U 23037AZ  23107.36842277  .00003524  00000-0  31054-4 0  9994,2 55961  70.0004  95.0164 0003246 269.5223  90.5601 15.69929107  4990,6737.237,91.724,361.289,356.915,0.0
55961.0,STARLINK-5933,PAYLOAD,2023-04-17 16:29:17,15.69922534,0.0003115,70.0005,94.1223,266.8126,93.2713,1.2114e-05,1.244e-05,0.0,0 STARLINK-5933,1 55961U 23037AZ  23107.68700887  .00001244  00000-0  12114-4 0  9992,2 55961  70.0005  94.1223 0003115 266.8126  93.2713 15.69922534  5042,6737.256,91.724,361.219,357.022,0.0
55961.0,STARLINK-5933,PAYLOAD,2023-04-18 09:18:33,15.69938114,0.0003788,70.003,92.1534,271.4456,88.6305,6.5795e-05,7.711e-05,0.0,0 STARLINK-5933,1 55961U 23037AZ  23108.38788800  .00007711  00000-0  65795-4 0  9999,2 55961  70.0030  92.1534 0003788 271.4456  88.6305 15.69938114  5492,6737.211,91.723,361.628,356.524,0.0
